{"type": "FeatureCollection", "features": [ {"type": "Feature", "properties": {"norad_id": 34833, "name": "IRIDIUM 33 DEB", "group": "iridium-33-debris", "lat": 43.45295864320978, "lon": -133.7803878837201, "alt_km": 703.9192686539745, "timestamp": "2025-12-15T20:48:54.269911+00:00", "meta": {"OBJECT_NAME": "IRIDIUM 33 DEB", "OBJECT_ID": "1997-051MH", "EPOCH": "2025-12-14T04:45:15.078816", "MEAN_MOTION": 14.5239107, "ECCENTRICITY": 0.00217354, "INCLINATION": 86.3931, "RA_OF_ASC_NODE": 50.3648, "ARG_OF_PERICENTER": 94.0496, "MEAN_ANOMALY": 320.0854, "EPHEMERIS_TYPE": 0, "CLASSIFICATION_TYPE": "U", "NORAD_CAT_ID": 34833, "ELEMENT_SET_NO": 999, "REV_AT_EPOCH": 87736, "BSTAR": 0.00088730228, "MEAN_MOTION_DOT": 3.644e-05, "MEAN_MOTION_DDOT": 0}, "tle": {"line1": "1 34833U 97051MH  25348.19809119  .00003644  00000+0  88730-3 0  9998", "line2": "2 34833  86.3931  50.3648 0021735  94.0496 320.0854 14.52391070877364"}}, "geometry": {"type": "Point", "coordinates": [-133.7803878837201, 43.45295864320978]}}, {"type": "Feature", "properties": {"norad_id": 34870, "name": "IRIDIUM 33 DEB", "group": "iridium-33-debris", "lat": 18.73936756654368, "lon": -46.09384056619191, "alt_km": 650.8950095339023, "timestamp": "2025-12-15T20:48:54.269921+00:00", "meta": {"OBJECT_NAME": "IRIDIUM 33 DEB", "OBJECT_ID": "1997-051MQ", "EPOCH": "2025-12-13T15:51:00.242208", "MEAN_MOTION": 14.76459498, "ECCENTRICITY": 0.00163253, "INCLINATION": 86.31, "RA_OF_ASC_NODE": 313.6624, "ARG_OF_PERICENTER": 179.046, "MEAN_ANOMALY": 357.3162, "EPHEMERIS_TYPE": 0, "CLASSIFICATION_TYPE": "U", "NORAD_CAT_ID": 34870, "ELEMENT_SET_NO": 999, "REV_AT_EPOCH": 88924, "BSTAR": 0.0017247419, "MEAN_MOTION_DOT": 0.00012059, "MEAN_MOTION_DDOT": 0}, "tle": {"line1": "1 34870U 97051MQ  25347.66041947  .00012059  00000+0  17247-2 0  9991", "line2": "2 34870  86.3100 313.6624 0016325 179.0460 357.3162 14.76459498889246"}}, "geometry": {"type": "Point", "coordinates": [-46.09384056619191, 18.73936756654368]}}, {"type": "Feature", "properties": {"norad_id": 34896, "name": "IRIDIUM 33 DEB", "group": "iridium-33-debris", "lat": 74.10422628775868, "lon": 132.25246065998832, "alt_km": 668.1521956749748, "timestamp": "2025-12-15T20:48:54.269931+00:00", "meta": {"OBJECT_NAME": "IRIDIUM 33 DEB", "OBJECT_ID": "1997-051MY", "EPOCH": "2025-12-14T05:05:50.525376", "MEAN_MOTION": 14.66300164, "ECCENTRICITY": 0.00244756, "INCLINATION": 86.3287, "RA_OF_ASC_NODE": 326.0246, "ARG_OF_PERICENTER": 208.9085, "MEAN_ANOMALY": 166.7259, "EPHEMERIS_TYPE": 0, "CLASSIFICATION_TYPE": "U", "NORAD_CAT_ID": 34896, "ELEMENT_SET_NO": 999, "REV_AT_EPOCH": 87641, "BSTAR": 0.0011083556, "MEAN_MOTION_DOT": 6.162e-05, "MEAN_MOTION_DDOT": 0}, "tle": {"line1": "1 34896U 97051MY  25348.21239034  .00006162  00000+0  11084-2 0  9998", "line2": "2 34896  86.3287 326.0246 0024475 208.9085 166.7259 14.66300164876416"}}, "geometry": {"type": "Point", "coordinates": [132.25246065998832, 74.10422628775868]}}, {"type": "Feature", "properties": {"norad_id": 34926, "name": "IRIDIUM 33 DEB", "group": "iridium-33-debris", "lat": 60.042074616983385, "lon": 13.563322394007157, "alt_km": 744.5429686404304, "timestamp": "2025-12-15T20:48:54.269941+00:00", "meta": {"OBJECT_NAME": "IRIDIUM 33 DEB", "OBJECT_ID": "1997-051NF", "EPOCH": "2025-12-14T01:51:40.129056", "MEAN_MOTION": 14.54500914, "ECCENTRICITY": 0.00755735, "INCLINATION": 86.1333, "RA_OF_ASC_NODE": 7.654, "ARG_OF_PERICENTER": 288.4035, "MEAN_ANOMALY": 125.6013, "EPHEMERIS_TYPE": 0, "CLASSIFICATION_TYPE": "U", "NORAD_CAT_ID": 34926, "ELEMENT_SET_NO": 999, "REV_AT_EPOCH": 86476, "BSTAR": 0.0053943711, "MEAN_MOTION_DOT": 0.00023949, "MEAN_MOTION_DDOT": 0}, "tle": {"line1": "1 34926U 97051NF  25348.07754779  .00023949  00000+0  53944-2 0  9997", "line2": "2 34926  86.1333   7.6540 0075573 288.4035 125.6013 14.54500914864761"}}, "geometry": {"type": "Point", "coordinates": [13.563322394007157, 60.042074616983385]}}, {"type": "Feature", "properties": {"norad_id": 34985, "name": "IRIDIUM 33 DEB", "group": "iridium-33-debris", "lat": 44.05252301016391, "lon": 59.06659023994734, "alt_km": 762.5462262030469, "timestamp": "2025-12-15T20:48:54.269951+00:00", "meta": {"OBJECT_NAME": "IRIDIUM 33 DEB", "OBJECT_ID": "1997-051NR", "EPOCH": "2025-12-14T04:53:38.247360", "MEAN_MOTION": 14.42019267, "ECCENTRICITY": 0.00208706, "INCLINATION": 86.37, "RA_OF_ASC_NODE": 56.2548, "ARG_OF_PERICENTER": 214.6902, "MEAN_ANOMALY": 200.0327, "EPHEMERIS_TYPE": 0, "CLASSIFICATION_TYPE": "U", "NORAD_CAT_ID": 34985, "ELEMENT_SET_NO": 999, "REV_AT_EPOCH": 87196, "BSTAR": 0.00078314681, "MEAN_MOTION_DOT": 2.594e-05, "MEAN_MOTION_DDOT": 0}, "tle": {"line1": "1 34985U 97051NR  25348.20391490  .00002594  00000+0  78315-3 0  9997", "line2": "2 34985  86.3700  56.2548 0020870 214.6902 200.0327 14.42019267871967"}}, "geometry": {"type": "Point", "coordinates": [59.06659023994734, 44.05252301016391]}}, {"type": "Feature", "properties": {"norad_id": 35051, "name": "IRIDIUM 33 DEB", "group": "iridium-33-debris", "lat": 39.65583449104511, "lon": 10.553877734815512, "alt_km": 724.6524894182339, "timestamp": "2025-12-15T20:48:54.269961+00:00", "meta": {"OBJECT_NAME": "IRIDIUM 33 DEB", "OBJECT_ID": "1997-051NX", "EPOCH": "2025-12-11T08:47:57.045408", "MEAN_MOTION": 14.47588957, "ECCENTRICITY": 0.00106566, "INCLINATION": 86.3243, "RA_OF_ASC_NODE": 9.4603, "ARG_OF_PERICENTER": 94.8899, "MEAN_ANOMALY": 265.3522, "EPHEMERIS_TYPE": 0, "CLASSIFICATION_TYPE": "U", "NORAD_CAT_ID": 35051, "ELEMENT_SET_NO": 999, "REV_AT_EPOCH": 86976, "BSTAR": 0.001042299, "MEAN_MOTION_DOT": 3.858e-05, "MEAN_MOTION_DDOT": 0}, "tle": {"line1": "1 35051U 97051NX  25345.36663247  .00003858  00000+0  10423-2 0  9997", "line2": "2 35051  86.3243   9.4603 0010656  94.8899 265.3522 14.47588957869768"}}, "geometry": {"type": "Point", "coordinates": [10.553877734815512, 39.65583449104511]}}, {"type": "Feature", "properties": {"norad_id": 35052, "name": "IRIDIUM 33 DEB", "group": "iridium-33-debris", "lat": 84.99964667236036, "lon": 66.30627738651093, "alt_km": 746.4615969793349, "timestamp": "2025-12-15T20:48:54.269970+00:00", "meta": {"OBJECT_NAME": "IRIDIUM 33 DEB", "OBJECT_ID": "1997-051NY", "EPOCH": "2025-12-14T12:41:41.757792", "MEAN_MOTION": 14.38494384, "ECCENTRICITY": 0.0013625, "INCLINATION": 86.3309, "RA_OF_ASC_NODE": 19.7092, "ARG_OF_PERICENTER": 80.11, "MEAN_ANOMALY": 280.1635, "EPHEMERIS_TYPE": 0, "CLASSIFICATION_TYPE": "U", "NORAD_CAT_ID": 35052, "ELEMENT_SET_NO": 999, "REV_AT_EPOCH": 87301, "BSTAR": 0.00021343381, "MEAN_MOTION_DOT": 6.72e-06, "MEAN_MOTION_DDOT": 0}, "tle": {"line1": "1 35052U 97051NY  25348.52895553  .00000672  00000+0  21343-3 0  9991", "line2": "2 35052  86.3309  19.7092 0013625  80.1100 280.1635 14.38494384873013"}}, "geometry": {"type": "Point", "coordinates": [66.30627738651093, 84.99964667236036]}}, {"type": "Feature", "properties": {"norad_id": 35080, "name": "IRIDIUM 33 DEB", "group": "iridium-33-debris", "lat": 77.8027685868117, "lon": 68.75737528534637, "alt_km": 601.6906324337388, "timestamp": "2025-12-15T20:48:54.269981+00:00", "meta": {"OBJECT_NAME": "IRIDIUM 33 DEB", "OBJECT_ID": "1997-051PF", "EPOCH": "2025-12-14T04:04:06.646368", "MEAN_MOTION": 14.86306117, "ECCENTRICITY": 0.00599054, "INCLINATION": 86.2063, "RA_OF_ASC_NODE": 51.6925, "ARG_OF_PERICENTER": 174.8299, "MEAN_ANOMALY": 185.3558, "EPHEMERIS_TYPE": 0, "CLASSIFICATION_TYPE": "U", "NORAD_CAT_ID": 35080, "ELEMENT_SET_NO": 999, "REV_AT_EPOCH": 69709, "BSTAR": 0.0068845127, "MEAN_MOTION_DOT": 0.00063095, "MEAN_MOTION_DDOT": 0}, "tle": {"line1": "1 35080U 97051PF  25348.16952137  .00063095  00000+0  68845-2 0  9999", "line2": "2 35080  86.2063  51.6925 0059905 174.8299 185.3558 14.86306117697092"}}, "geometry": {"type": "Point", "coordinates": [68.75737528534637, 77.8027685868117]}}, {"type": "Feature", "properties": {"norad_id": 35297, "name": "IRIDIUM 33 DEB", "group": "iridium-33-debris", "lat": 68.01984877137588, "lon": 70.43268739361619, "alt_km": 729.1065873763728, "timestamp": "2025-12-15T20:48:54.269991+00:00", "meta": {"OBJECT_NAME": "IRIDIUM 33 DEB", "OBJECT_ID": "1997-051PM", "EPOCH": "2025-12-14T12:55:35.277600", "MEAN_MOTION": 14.45168041, "ECCENTRICITY": 0.00176283, "INCLINATION": 86.3867, "RA_OF_ASC_NODE": 61.9926, "ARG_OF_PERICENTER": 135.2135, "MEAN_ANOMALY": 225.0494, "EPHEMERIS_TYPE": 0, "CLASSIFICATION_TYPE": "U", "NORAD_CAT_ID": 35297, "ELEMENT_SET_NO": 999, "REV_AT_EPOCH": 70452, "BSTAR": 0.0006336217, "MEAN_MOTION_DOT": 2.241e-05, "MEAN_MOTION_DDOT": 0}, "tle": {"line1": "1 35297U 97051PM  25348.53860275  .00002241  00000+0  63362-3 0  9997", "line2": "2 35297  86.3867  61.9926 0017628 135.2135 225.0494 14.45168041704521"}}, "geometry": {"type": "Point", "coordinates": [70.43268739361619, 68.01984877137588]}}, {"type": "Feature", "properties": {"norad_id": 35299, "name": "IRIDIUM 33 DEB", "group": "iridium-33-debris", "lat": -47.32789046119414, "lon": 27.787677217966234, "alt_km": 794.4634277127889, "timestamp": "2025-12-15T20:48:54.270001+00:00", "meta": {"OBJECT_NAME": "IRIDIUM 33 DEB", "OBJECT_ID": "1997-051PP", "EPOCH": "2025-12-14T14:03:44.999136", "MEAN_MOTION": 14.4087244, "ECCENTRICITY": 0.00589652, "INCLINATION": 86.2888, "RA_OF_ASC_NODE": 32.3826, "ARG_OF_PERICENTER": 96.5239, "MEAN_ANOMALY": 54.1698, "EPHEMERIS_TYPE": 0, "CLASSIFICATION_TYPE": "U", "NORAD_CAT_ID": 35299, "ELEMENT_SET_NO": 999, "REV_AT_EPOCH": 86357, "BSTAR": 0.00074613708, "MEAN_MOTION_DOT": 2.461e-05, "MEAN_MOTION_DDOT": 0}, "tle": {"line1": "1 35299U 97051PP  25348.58593749  .00002461  00000+0  74614-3 0  9999", "line2": "2 35299  86.2888  32.3826 0058965  96.5239  54.1698 14.40872440863577"}}, "geometry": {"type": "Point", "coordinates": [27.787677217966234, -47.32789046119414]}}]}